OBJECT_NAME,OBJECT_ID,EPOCH,MEAN_MOTION,ECCENTRICITY,INCLINATION,RA_OF_ASC_NODE,ARG_OF_PERICENTER,MEAN_ANOMALY,EPHEMERIS_TYPE,CLASSIFICATION_TYPE,NORAD_CAT_ID,ELEMENT_SET_NO,REV_AT_EPOCH,BSTAR,MEAN_MOTION_DOT,MEAN_MOTION_DDOT
PERSEUS-M1,2014-033AF,2026-06-17T20:08:08.729952,14.95632448,.00102619,97.9641,112.9814,298.8550,61.1639,0,U,40039,999,65073,.11943002E-3,.1267E-4,0
POLYITAN-1,2014-033AJ,2026-06-18T00:44:56.527584,15.33281524,.00086912,98.0938,195.3722,138.9044,221.2853,0,U,40042,999,65372,.4871518E-3,.1561E-3,0
TIGRISAT,2014-033AK,2026-06-17T23:48:04.677120,14.85165216,.00505745,97.7830,318.9847,72.6516,288.0222,0,U,40043,999,64574,.19440802E-3,.1648E-4,0
AEROCUBE 6A,2014-033AM,2026-06-17T23:00:27.095616,14.98116424,.00388625,97.7248,335.8988,15.4901,344.7501,0,U,40045,999,64673,.36603533E-3,.4342E-4,0
AEROCUBE 6B,2014-033AN,2026-06-18T00:38:48.676128,14.99576366,.00382434,97.7246,335.7585,6.4991,353.6720,0,U,40046,999,64688,.30977078E-3,.3806E-4,0
CANX-4,2014-034C,2026-06-18T02:20:32.812800,14.81266161,.00130986,98.3121,44.4441,14.2311,345.9267,0,U,40055,999,64466,.99764147E-4,.721E-5,0
CANX-5,2014-034D,2026-06-18T02:18:16.529760,14.81283401,.00131082,98.3122,44.4861,14.4282,345.7301,0,U,40056,999,63547,.10011925E-3,.724E-5,0
UKUBE-1,2014-037F,2026-06-17T23:04:40.533600,15.13564400,.000264,98.4232,172.3147,131.7969,228.3486,0,U,40074,999,64867,.43096833E-3,.7654E-4,0
BRITE-PL2 (HEWELIUSZ),2014-049B,2026-06-18T05:50:42.009792,14.94596501,.0015313,97.9099,281.2515,105.3590,254.9323,0,U,40119,999,64160,.15024742E-3,.157E-4,0
AEROCUBE 5C,2015-058B,2026-06-17T12:08:45.871008,14.91454811,.01307566,64.7676,261.5986,63.1470,298.2940,0,U,40965,999,36570,.16077043E-3,.1718E-4,0
AEROCUBE 7,2015-058C,2026-06-18T04:04:58.511424,14.95730374,.01205064,64.7616,241.7372,61.3138,300.0027,0,U,40966,999,36610,.20046403E-3,.2406E-4,0
FOX-1A (AO-85),2015-058D,2026-06-18T06:59:54.609792,14.90973898,.01305389,64.7760,275.5520,56.1547,305.1908,0,U,40967,999,11373,.17048921E-3,.1807E-4,0
SINOD-D 1,2015-058E,2026-06-18T05:09:19.563264,14.95910862,.01190974,64.7751,255.6947,52.6726,308.5169,0,U,40968,999,11681,.20144944E-3,.2423E-4,0
SNAP-3 ALICE,2015-058G,2026-06-18T04:47:04.353216,15.60262488,.00278706,64.7502,100.4327,12.3049,347.8772,0,U,40970,999,11704,.11695643E-2,.98847E-3,0
LMRST-SAT,2015-058H,2026-06-18T07:32:33.844704,14.90593890,.01321456,64.7763,271.8213,58.1750,303.2148,0,U,40971,999,11372,.1588065E-3,.1659E-4,0
SNAP-3 EDDIE,2015-058J,2026-06-18T04:31:33.129696,15.61552265,.00274837,64.7423,91.1867,16.2620,343.9402,0,U,40972,999,11918,.11442896E-2,.101641E-2,0
PROPCUBE 3,2015-058K,2026-06-18T05:07:04.399104,14.94261722,.01240966,64.7682,249.3302,59.5125,301.8173,0,U,40973,999,11495,.17787735E-3,.2045E-4,0
BISONSAT,2015-058L,2026-06-18T02:07:28.520256,15.16206145,.00791226,64.7579,170.7303,46.8908,313.8799,0,U,40974,999,11575,.4520958E-3,.9304E-4,0
SNAP-3 JIMI,2015-058M,2026-06-18T02:54:28.430496,15.02304590,.01062228,64.7632,216.8175,54.9841,306.1189,0,U,40975,999,11436,.25517284E-3,.363E-4,0
PROPCUBE 1 (FLORA),2015-058N,2026-06-17T17:35:32.952192,14.89224245,.01307841,64.7756,293.5441,60.7107,300.7001,0,U,40976,999,11634,.17539591E-3,.1776E-4,0
SINOD-D 3,2015-058P,2026-06-17T15:25:25.648608,14.94018331,.01192893,64.7731,274.3970,57.9531,303.3103,0,U,40977,999,11482,.21502479E-3,.2465E-4,0
HORYU-4,2016-012D,2026-06-18T01:30:03.446496,15.96640257,.00059419,30.9844,72.5998,278.9863,81.0127,0,U,41340,999,57095,.98166813E-3,.440932E-2,.72867516E-4
RAVAN,2016-067B,2026-06-17T14:57:02.437632,15.54715038,.00043504,97.9885,58.2450,30.7045,329.4461,0,U,41849,999,52776,.62850124E-3,.41762E-3,0
CELTEE 1,2016-067C,2026-06-18T03:05:39.183072,15.19689359,.00009801,98.0668,35.7600,126.8812,233.2511,0,U,41850,999,52602,.1868276E-3,.391E-4,0
OPTICUBE 04,2016-067D,2026-06-17T13:02:08.808864,15.09660048,.0016863,98.0694,20.8453,114.5788,245.7199,0,U,41851,999,52522,.13878E-3,.2169E-4,0
AEROCUBE 8D,2016-067E,2026-06-17T21:03:47.437632,15.24405693,.00047339,98.0674,39.1013,121.4988,238.6710,0,U,41852,999,52617,.24703001E-3,.5976E-4,0
AEROCUBE 8C,2016-067F,2026-06-18T02:23:07.955232,15.24657531,.0006566,98.0544,36.5659,66.5233,293.6692,0,U,41853,999,52620,.26194418E-3,.6392E-4,0
CORVUS BC2,2017-042X,2026-06-17T23:48:30.275712,15.06302597,.00143968,97.4070,330.3098,107.9527,252.3272,0,U,42846,999,48718,.22723024E-3,.3287E-4,0
CORVUS BC1,2017-042Y,2026-06-17T23:40:36.595488,15.06472044,.00134178,97.4104,331.1194,86.8183,273.4579,0,U,42847,999,48721,.19997755E-3,.2898E-4,0
MAKERSAT 0,2017-073D,2026-06-17T15:17:26.646144,15.32110935,.01050745,97.4617,51.1594,271.3551,87.5656,0,U,43016,999,46653,.37519118E-3,.1377E-3,0
